NORAD_CAT_ID,OBJECT_NAME,OBJECT_TYPE,EPOCH,MEAN_MOTION,ECCENTRICITY,INCLINATION,RA_OF_ASC_NODE,ARG_OF_PERICENTER,MEAN_ANOMALY,BSTAR,MEAN_MOTION_DOT,MEAN_MOTION_DDOT,TLE_LINE0,TLE_LINE1,TLE_LINE2,SEMIMAJOR_AXIS,PERIOD,APOGEE,PERIGEE,DECAYED
52678.0,STARLINK-4074,PAYLOAD,2023-06-12 14:44:32,15.08838424,0.0001089,53.2181,318.1246,85.1841,274.9276,5.2952e-05,5.55e-06,0.0,0 STARLINK-4074,1 52678U 22053Y   23163.61426666  .00000555  00000-0  52952-4 0  9994,2 52678  53.2181 318.1246 0001089  85.1841 274.9276 15.08838424 59611,6917.885,95.438,540.504,538.997,0.0
52678.0,STARLINK-4074,PAYLOAD,2023-06-13 12:59:56,15.08849342,0.000124,53.2174,313.9613,78.5033,281.6099,-8.7541e-05,-1.681e-05,0.0,0 STARLINK-4074,1 52678U 22053Y   23164.54162263 -.00001681  00000-0 -87541-4 0  9992,2 52678  53.2174 313.9613 0001240  78.5033 281.6099 15.08849342 60185,6917.852,95.437,540.575,538.859,0.0
52678.0,STARLINK-4074,PAYLOAD,2023-06-14 12:50:43,15.08833303,0.0001023,53.2173,309.5008,83.9213,276.1896,0.00013254,1.822e-05,0.0,0 STARLINK-4074,1 52678U 22053Y   23165.53522720  .00001822  00000-0  13254-3 0  9994,2 52678  53.2173 309.5008 0001023  83.9213 276.1896 15.08833303 60333,6917.901,95.438,540.474,539.058,0.0
52678.0,STARLINK-4074,PAYLOAD,2023-06-14 16:01:29,15.0884077,9.69e-05,53.2174,308.904,94.828,265.2823,9.2563e-05,1.186e-05,0.0,0 STARLINK-4074,1 52678U 22053Y   23165.66770254  .00001186  00000-0  92563-4 0  9999,2 52678  53.2174 308.9040 0000969  94.8280 265.2823 15.08840770 59924,6917.878,95.438,540.413,539.073,0.0
52678.0,STARLINK-4074,PAYLOAD,2023-06-14 19:12:15,15.08845813,9.72e-05,53.2173,308.3102,92.9331,267.1773,8.0603e-05,9.95e-06,0.0,0 STARLINK-4074,1 52678U 22053Y   23165.80017924  .00000995  00000-0  80603-4 0  9992,2 52678  53.2173 308.3102 0000972  92.9331 267.1773 15.08845813 60375,6917.863,95.437,540.4,539.055,0.0
52678.0,STARLINK-4074,PAYLOAD,2023-06-15 09:30:44,15.08836961,0.0001055,53.2171,305.6347,88.7225,271.3887,2.6533e-05,1.34e-06,0.0,0 STARLINK-4074,1 52678U 22053Y   23166.39634639  .00000134  00000-0  26533-4 0  9992,2 52678  53.2171 305.6347 0001055  88.7225 271.3887 15.08836961 60032,6917.89,95.438,540.485,539.025,0.0
52678.0,STARLINK-4074,PAYLOAD,2023-06-15 12:41:30,15.08838804,0.0001081,53.2171,305.0403,87.4959,272.6157,3.5475e-05,2.77e-06,0.0,0 STARLINK-4074,1 52678U 22053Y   23166.52882522  .00000277  00000-0  35475-4 0  9996,2 52678  53.2171 305.0403 0001081  87.4959 272.6157 15.08838804 60489,6917.884,95.438,540.497,539.001,0.0
52678.0,STARLINK-4074,PAYLOAD,2023-06-15 15:52:16,15.08846622,9.47e-05,53.2171,304.4436,97.9842,262.1257,5.6639e-05,6.14e-06,0.0,0 STARLINK-4074,1 52678U 22053Y   23166.66129886  .00000614  00000-0  56639-4 0  9998,2 52678  53.2171 304.4436 0000947  97.9842 262.1257 15.08846622 60072,6917.86,95.437,540.38,539.07,0.0
52678.0,STARLINK-4074,PAYLOAD,2023-06-15 19:03:01,15.08855827,9.34e-05,53.217,303.8503,90.023,270.0869,0.00013514,1.865e-05,0.0,0 STARLINK-4074,1 52678U 22053Y   23166.79376992  .00001865  00000-0  13514-3 0  9997,2 52678  53.2170 303.8503 0000934  90.0230 270.0869 15.08855827 60096,6917.832,95.437,540.343,539.051,0.0
52678.0,STARLINK-4074,PAYLOAD,2023-06-16 09:21:30,15.08842748,9.74e-05,53.2161,301.1732,88.1589,271.9515,4.1337e-05,3.7e-06,0.0,0 STARLINK-4074,1 52678U 22053Y   23167.38993942  .00000370  00000-0  41337-4 0  9998,2 52678  53.2161 301.1732 0000974  88.1589 271.9515 15.08842748 60186,6917.872,95.437,540.411,539.063,0.0
52678.0,STARLINK-4074,PAYLOAD,2023-06-16 12:32:16,15.08846625,0.0001088,53.2172,300.5804,87.6729,272.4388,7.7062e-05,9.39e-06,0.0,0 STARLINK-4074,1 52678U 22053Y   23167.52241590  .00000939  00000-0  77062-4 0  9994,2 52678  53.2172 300.5804 0001088  87.6729 272.4388 15.08846625 60630,6917.86,95.437,540.478,538.972,0.0
52678.0,STARLINK-4074,PAYLOAD,2023-06-16 15:43:02,15.08851328,0.0001081,53.2172,299.9856,89.0877,271.0239,0.00011819,1.594e-05,0.0,0 STARLINK-4074,1 52678U 22053Y   23167.65489113  .00001594  00000-0  11819-3 0  9998,2 52678  53.2172 299.9856 0001081  89.0877 271.0239 15.08851328 60222,6917.846,95.437,540.459,538.963,0.0
52678.0,STARLINK-4074,PAYLOAD,2023-06-16 18:53:48,15.08856324,0.0001127,53.2174,299.39,91.6035,268.5086,0.00013502,1.863e-05,0.0,0 STARLINK-4074,1 52678U 22053Y   23167.78736643  .00001863  00000-0  13502-3 0  9995,2 52678  53.2174 299.3900 0001127  91.6035 268.5086 15.08856324 60675,6917.83,95.437,540.475,538.916,0.0
52678.0,STARLINK-4074,PAYLOAD,2023-06-17 07:36:53,15.08856582,0.0001152,53.2179,297.0105,96.2228,263.8896,0.00018238,2.617e-05,0.0,0 STARLINK-4074,1 52678U 22053Y   23168.31728173  .00002617  00000-0  18238-3 0  9993,2 52678  53.2179 297.0105 0001152  96.2228 263.8896 15.08856582 60757,6917.83,95.437,540.492,538.898,0.0
52678.0,STARLINK-4074,PAYLOAD,2023-06-17 15:33:51,15.08828539,0.0001927,53.2169,295.5217,100.4151,259.7058,-3.0973e-05,-7.81e-06,0.0,0 STARLINK-4074,1 52678U 22053Y   23168.64851511 -.00000781  00000-0 -30973-4 0  9995,2 52678  53.2169 295.5217 0001927 100.4151 259.7058 15.08828539 60379,6917.915,95.438,541.114,538.447,0.0
52678.0,STARLINK-4074,PAYLOAD,2023-06-18 01:06:10,15.088347,0.0001074,53.2177,293.741,103.7776,256.3336,-3.7719e-05,-8.88e-06,0.0,0 STARLINK-4074,1 52678U 22053Y   23169.04595340 -.00000888  00000-0 -37719-4 0  9998,2 52678  53.2177 293.7410 0001074 103.7776 256.3336 15.08834700 60868,6917.897,95.438,540.505,539.019,0.0
52678.0,STARLINK-4074,PAYLOAD,2023-06-18 17:00:01,15.08843527,0.0001073,53.217,290.7662,95.7683,264.3431,0.00010437,1.374e-05,0.0,0 STARLINK-4074,1 52678U 22053Y   23169.70834707  .00001374  00000-0  10437-3 0  9990,2 52678  53.2170 290.7662 0001073  95.7683 264.3431 15.08843527 60539,6917.87,95.437,540.477,538.992,0.0
52678.0,STARLINK-4074,PAYLOAD,2023-06-19 10:29:16,15.08838057,9.9e-05,53.2166,287.4953,99.3922,260.7182,0.00022698,3.326e-05,0.0,0 STARLINK-4074,1 52678U 22053Y   23170.43699299  .00003326  00000-0  22698-3 0  9998,2 52678  53.2166 287.4953 0000990  99.3922 260.7182 15.08838057 61078,6917.886,95.438,540.436,539.066,0.0
52678.0,STARLINK-4074,PAYLOAD,2023-06-20 10:20:03,15.08837735,9.41e-05,53.2154,283.0373,101.9151,258.1947,-1.9336e-05,-5.95e-06,0.0,0 STARLINK-4074,1 52678U 22053Y   23171.43059154 -.00000595  00000-0 -19336-4 0  9992,2 52678  53.2154 283.0373 0000941 101.9151 258.1947 15.08837735 61222,6917.887,95.438,540.403,539.101,0.0
52678.0,STARLINK-4074,PAYLOAD,2023-06-20 16:41:35,15.08842616,9.34e-05,53.2168,281.8427,100.1081,260.0017,6.9415e-05,8.17e-06,0.0,0 STARLINK-4074,1 52678U 22053Y   23171.69554947  .00000817  00000-0  69415-4 0  9998,2 52678  53.2168 281.8427 0000934 100.1081 260.0017 15.08842616 60838,6917.872,95.437,540.384,539.091,0.0
52678.0,STARLINK-4074,PAYLOAD,2023-06-21 13:21:35,15.08848382,9.73e-05,53.2151,277.9795,106.7771,253.3328,2.5559e-05,1.19e-06,0.0,0 STARLINK-4074,1 52678U 22053Y   23172.55666631  .00000119  00000-0  25559-4 0  9994,2 52678  53.2151 277.9795 0000973 106.7771 253.3328 15.08848382 61393,6917.855,95.437,540.393,539.047,0.0
52678.0,STARLINK-4074,PAYLOAD,2023-06-22 00:29:18,15.08840585,8.39e-05,53.2141,275.8979,108.9451,251.1632,1.8026e-05,-1e-08,0.0,0 STARLINK-4074,1 52678U 22053Y   23173.02035024 -.00000001  00000-0  18026-4 0  9995,2 52678  53.2141 275.8979 0000839 108.9451 251.1632 15.08840585 61035,6917.879,95.438,540.324,539.163,0.0
52678.0,STARLINK-4074,PAYLOAD,2023-06-22 13:12:23,15.08832736,9.85e-05,53.2158,273.5201,84.9908,275.1196,2.6786e-05,1.39e-06,0.0,0 STARLINK-4074,1 52678U 22053Y   23173.55027769  .00000139  00000-0  26786-4 0  9993,2 52678  53.2158 273.5201 0000985  84.9908 275.1196 15.08832736 61117,6917.903,95.438,540.449,539.086,0.0
52678.0,STARLINK-4074,PAYLOAD,2023-06-23 09:52:24,15.08847132,0.0001013,53.215,269.6554,73.4652,286.6451,0.00020705,3.01e-05,0.0,0 STARLINK-4074,1 52678U 22053Y   23174.41139106  .00003010  00000-0  20705-3 0  9993,2 52678  53.2150 269.6554 0001013  73.4652 286.6451 15.08847132 61249,6917.859,95.437,540.424,539.023,0.0
52678.0,STARLINK-4074,PAYLOAD,2023-06-23 16:13:56,15.08858823,9.98e-05,53.2156,268.4646,72.2886,287.8215,0.00042621,6.505e-05,0.0,0 STARLINK-4074,1 52678U 22053Y   23174.67634698  .00006505  00000-0  42621-3 0  9990,2 52678  53.2156 268.4646 0000998  72.2886 287.8215 15.08858823 61285,6917.823,95.436,540.378,538.997,0.0
52678.0,STARLINK-4074,PAYLOAD,2023-06-24 06:32:25,15.08846961,9.72e-05,53.2159,265.7825,96.8138,263.2965,0.00017742,2.538e-05,0.0,0 STARLINK-4074,1 52678U 22053Y   23175.27251222  .00002538  00000-0  17742-3 0  9993,2 52678  53.2159 265.7825 0000972  96.8138 263.2965 15.08846961 61371,6917.859,95.437,540.397,539.052,0.0
52678.0,STARLINK-4074,PAYLOAD,2023-06-25 01:37:02,15.08837829,0.0001,53.2159,262.2185,106.5556,253.5546,-3.4135e-05,-8.31e-06,0.0,0 STARLINK-4074,1 52678U 22053Y   23176.06739029 -.00000831  00000-0 -34135-4 0  9999,2 52678  53.2159 262.2185 0001000 106.5556 253.5546 15.08837829 61491,6917.887,95.438,540.444,539.06,0.0
52678.0,STARLINK-4074,PAYLOAD,2023-06-26 09:24:45,15.08837063,9.97e-05,53.2152,256.2731,92.4561,267.6545,0.00010937,1.453e-05,0.0,0 STARLINK-4074,1 52678U 22053Y   23177.39219690  .00001453  00000-0  10937-3 0  9995,2 52678  53.2152 256.2731 0000997  92.4561 267.6545 15.08837063 61694,6917.889,95.438,540.444,539.065,0.0
52678.0,STARLINK-4074,PAYLOAD,2023-06-27 10:50:55,15.08843716,9.56e-05,53.2153,251.516,91.2645,268.8457,0.00023077,3.387e-05,0.0,0 STARLINK-4074,1 52678U 22053Y   23178.45203695  .00003387  00000-0  23077-3 0  9998,2 52678  53.2153 251.5160 0000956  91.2645 268.8457 15.08843716 61859,6917.869,95.437,540.395,539.073,0.0
52678.0,STARLINK-4074,PAYLOAD,2023-06-28 04:20:10,15.08836844,9.94e-05,53.2148,248.2438,82.9498,277.1607,8.772e-05,1.108e-05,0.0,0 STARLINK-4074,1 52678U 22053Y   23179.18068052  .00001108  00000-0  87720-4 0  9990,2 52678  53.2148 248.2438 0000994  82.9498 277.1607 15.08836844 61965,6917.89,95.438,540.443,539.067,0.0
